[Satellite]
VERSION=1.1
NAME=IRIDIUM 145
NICKNAME=IRIDIUM 145
TLE1=1 43253U 18030E   20157.67017810  .00000067  00000-0  16707-4 0  9992
TLE2=2 43253  86.3957 130.8958 0001159 119.9897 240.1414 14.34217260114430
STATUS=0
